[
    {
        "Altitude(m)": 605459.0581295793,
        "Argument of Periapsis(deg)": 0.0,
        "Eccentricity": 0.0,
        "Inclination(deg)": 60.0,
        "Latitude(deg)": 27.98830923935265,
        "Longitude(deg)": 52.7985437737794,
        "Mean Anomaly(deg)": 32.72730000000001,
        "RAAN(deg)": 135.0,
        "Satellite Name": "Test1 596",
        "Satellite Number": 596,
        "Semi-Major Axis(m)": 6980739.136638005,
        "Time(s)": 0
    },
    {
        "Altitude(m)": 605535.8496501298,
        "Argument of Periapsis(deg)": 0.00010418945913296404,
        "Eccentricity": 0.0,
        "Inclination(deg)": 60.0,
        "Latitude(deg)": 28.50143922305429,
        "Longitude(deg)": 53.15548828085371,
        "Mean Anomaly(deg)": 33.34740614546182,
        "RAAN(deg)": 134.99957995086024,
        "Satellite Name": "Test1 596",
        "Satellite Number": 596,
        "Semi-Major Axis(m)": 6980739.136638005,
        "Time(s)": 10
    }
]